CCSDS_OMM_VERS = 2.0
CREATION_DATE  = 
ORIGINATOR     = 

OBJECT_NAME    = SL-16 R/B
OBJECT_ID      = 1993-016B
CENTER_NAME    = EARTH
REF_FRAME      = TEME
TIME_SYSTEM    = UTC
MEAN_ELEMENT_THEORY = SGP/SGP4

EPOCH          = 2026-01-10T23:10:43.976928
MEAN_MOTION    = 14.15294954
ECCENTRICITY   = .00084745
INCLINATION    = 71.0089
RA_OF_ASC_NODE = 336.4193
ARG_OF_PERICENTER = 40.2901
MEAN_ANOMALY   = 319.8848

EPHEMERIS_TYPE = 0
CLASSIFICATION_TYPE = U
NORAD_CAT_ID   = 22566
ELEMENT_SET_NO = 999
REV_AT_EPOCH   = 69400
BSTAR          = -.91399382E-4
MEAN_MOTION_DOT = -.226E-5
MEAN_MOTION_DDOT = 0

CCSDS_OMM_VERS = 2.0
CREATION_DATE  = 
ORIGINATOR     = 

OBJECT_NAME    = COSMOS 2242
OBJECT_ID      = 1993-024A
CENTER_NAME    = EARTH
REF_FRAME      = TEME
TIME_SYSTEM    = UTC
MEAN_ELEMENT_THEORY = SGP/SGP4

EPOCH          = 2026-01-10T20:41:03.169536
MEAN_MOTION    = 14.96259104
ECCENTRICITY   = .0017501
INCLINATION    = 82.5207
RA_OF_ASC_NODE = 322.0082
ARG_OF_PERICENTER = 134.9918
MEAN_ANOMALY   = 225.2726

EPHEMERIS_TYPE = 0
CLASSIFICATION_TYPE = U
NORAD_CAT_ID   = 22626
ELEMENT_SET_NO = 999
REV_AT_EPOCH   = 77174
BSTAR          = .22208422E-3
MEAN_MOTION_DOT = .254E-4
MEAN_MOTION_DDOT = 0

CCSDS_OMM_VERS = 2.0
CREATION_DATE  = 
ORIGINATOR     = 

OBJECT_NAME    = SL-16 R/B
OBJECT_ID      = 1993-059B
CENTER_NAME    = EARTH
REF_FRAME      = TEME
TIME_SYSTEM    = UTC
MEAN_ELEMENT_THEORY = SGP/SGP4

EPOCH          = 2026-01-10T17:47:26.171232
MEAN_MOTION    = 14.17219106
ECCENTRICITY   = .00192569
INCLINATION    = 70.9905
RA_OF_ASC_NODE = 133.3307
ARG_OF_PERICENTER = 295.1620
MEAN_ANOMALY   = 64.7506

EPHEMERIS_TYPE = 0
CLASSIFICATION_TYPE = U
NORAD_CAT_ID   = 22803
ELEMENT_SET_NO = 999
REV_AT_EPOCH   = 67132
BSTAR          = .7754617E-4
MEAN_MOTION_DOT = .109E-5
MEAN_MOTION_DDOT = 0

CCSDS_OMM_VERS = 2.0
CREATION_DATE  = 
ORIGINATOR     = 

OBJECT_NAME    = ARIANE 40 R/B
OBJECT_ID      = 1993-061H
CENTER_NAME    = EARTH
REF_FRAME      = TEME
TIME_SYSTEM    = UTC
MEAN_ELEMENT_THEORY = SGP/SGP4

EPOCH          = 2026-01-10T22:45:15.583392
MEAN_MOTION    = 14.32824045
ECCENTRICITY   = .00118224
INCLINATION    = 98.5032
RA_OF_ASC_NODE = 80.9408
ARG_OF_PERICENTER = 95.5403
MEAN_ANOMALY   = 264.7130

EPHEMERIS_TYPE = 0
CLASSIFICATION_TYPE = U
NORAD_CAT_ID   = 22830
ELEMENT_SET_NO = 999
REV_AT_EPOCH   = 68583
BSTAR          = .10855163E-3
MEAN_MOTION_DOT = .253E-5
MEAN_MOTION_DDOT = 0

CCSDS_OMM_VERS = 2.0
CREATION_DATE  = 
ORIGINATOR     = 

OBJECT_NAME    = COSMOS 2278
OBJECT_ID      = 1994-023A
CENTER_NAME    = EARTH
REF_FRAME      = TEME
TIME_SYSTEM    = UTC
MEAN_ELEMENT_THEORY = SGP/SGP4

EPOCH          = 2026-01-10T22:58:48.106272
MEAN_MOTION    = 14.14361933
ECCENTRICITY   = .0006941
INCLINATION    = 71.0551
RA_OF_ASC_NODE = 295.8824
ARG_OF_PERICENTER = 125.5380
MEAN_ANOMALY   = 234.6391

EPHEMERIS_TYPE = 0
CLASSIFICATION_TYPE = U
NORAD_CAT_ID   = 23087
ELEMENT_SET_NO = 999
REV_AT_EPOCH   = 63664
BSTAR          = .20292218E-3
MEAN_MOTION_DOT = .341E-5
MEAN_MOTION_DDOT = 0

CCSDS_OMM_VERS = 2.0
CREATION_DATE  = 
ORIGINATOR     = 

OBJECT_NAME    = SL-16 R/B
OBJECT_ID      = 1994-023B
CENTER_NAME    = EARTH
REF_FRAME      = TEME
TIME_SYSTEM    = UTC
MEAN_ELEMENT_THEORY = SGP/SGP4

EPOCH          = 2026-01-10T21:19:51.850848
MEAN_MOTION    = 14.15003455
ECCENTRICITY   = .00029926
INCLINATION    = 70.9983
RA_OF_ASC_NODE = 192.2721
ARG_OF_PERICENTER = 345.6150
MEAN_ANOMALY   = 14.4887

EPHEMERIS_TYPE = 0
CLASSIFICATION_TYPE = U
NORAD_CAT_ID   = 23088
ELEMENT_SET_NO = 999
REV_AT_EPOCH   = 63791
BSTAR          = .20007371E-3
MEAN_MOTION_DOT = .34E-5
MEAN_MOTION_DDOT = 0

CCSDS_OMM_VERS = 2.0
CREATION_DATE  = 
ORIGINATOR     = 

OBJECT_NAME    = SL-16 R/B
OBJECT_ID      = 1994-074B
CENTER_NAME    = EARTH
REF_FRAME      = TEME
TIME_SYSTEM    = UTC
MEAN_ELEMENT_THEORY = SGP/SGP4

EPOCH          = 2026-01-10T23:09:02.202912
MEAN_MOTION    = 14.79329776
ECCENTRICITY   = .00077709
INCLINATION    = 97.7176
RA_OF_ASC_NODE = 44.1035
ARG_OF_PERICENTER = 56.7829
MEAN_ANOMALY   = 11.9015

EPHEMERIS_TYPE = 0
CLASSIFICATION_TYPE = U
NORAD_CAT_ID   = 23343
ELEMENT_SET_NO = 999
REV_AT_EPOCH   = 67871
BSTAR          = .73264453E-4
MEAN_MOTION_DOT = .496E-5
MEAN_MOTION_DDOT = 0

CCSDS_OMM_VERS = 2.0
CREATION_DATE  = 
ORIGINATOR     = 

OBJECT_NAME    = SL-16 R/B
OBJECT_ID      = 1994-077B
CENTER_NAME    = EARTH
REF_FRAME      = TEME
TIME_SYSTEM    = UTC
MEAN_ELEMENT_THEORY = SGP/SGP4

EPOCH          = 2026-01-10T16:20:35.547936
MEAN_MOTION    = 14.15552362
ECCENTRICITY   = .00048222
INCLINATION    = 70.9831
RA_OF_ASC_NODE = 114.5302
ARG_OF_PERICENTER = 260.5312
MEAN_ANOMALY   = 99.5266

EPHEMERIS_TYPE = 0
CLASSIFICATION_TYPE = U
NORAD_CAT_ID   = 23405
ELEMENT_SET_NO = 999
REV_AT_EPOCH   = 60802
BSTAR          = .1634038E-3
MEAN_MOTION_DOT = .272E-5
MEAN_MOTION_DDOT = 0

CCSDS_OMM_VERS = 2.0
CREATION_DATE  = 
ORIGINATOR     = 

OBJECT_NAME    = ARIANE 40+ R/B
OBJECT_ID      = 1995-021B
CENTER_NAME    = EARTH
REF_FRAME      = TEME
TIME_SYSTEM    = UTC
MEAN_ELEMENT_THEORY = SGP/SGP4

EPOCH          = 2026-01-10T19:07:05.558304
MEAN_MOTION    = 14.39722056
ECCENTRICITY   = .00059408
INCLINATION    = 98.4610
RA_OF_ASC_NODE = 83.0298
ARG_OF_PERICENTER = 322.5137
MEAN_ANOMALY   = 148.1151

EPHEMERIS_TYPE = 0
CLASSIFICATION_TYPE = U
NORAD_CAT_ID   = 23561
ELEMENT_SET_NO = 999
REV_AT_EPOCH   = 61091
BSTAR          = .11211016E-3
MEAN_MOTION_DOT = .307E-5
MEAN_MOTION_DDOT = 0

CCSDS_OMM_VERS = 2.0
CREATION_DATE  = 
ORIGINATOR     = 

OBJECT_NAME    = SL-16 R/B
OBJECT_ID      = 1995-058B
CENTER_NAME    = EARTH
REF_FRAME      = TEME
TIME_SYSTEM    = UTC
MEAN_ELEMENT_THEORY = SGP/SGP4

EPOCH          = 2026-01-10T23:13:34.478688
MEAN_MOTION    = 14.15489336
ECCENTRICITY   = .00138476
INCLINATION    = 71.0230
RA_OF_ASC_NODE = 301.4404
ARG_OF_PERICENTER = 216.2017
MEAN_ANOMALY   = 143.8170

EPHEMERIS_TYPE = 0
CLASSIFICATION_TYPE = U
NORAD_CAT_ID   = 23705
ELEMENT_SET_NO = 999
REV_AT_EPOCH   = 55968
BSTAR          = .113732E-3
MEAN_MOTION_DOT = .175E-5
MEAN_MOTION_DDOT = 0

CCSDS_OMM_VERS = 2.0
CREATION_DATE  = 
ORIGINATOR     = 

OBJECT_NAME    = SL-16 R/B
OBJECT_ID      = 1996-051B
CENTER_NAME    = EARTH
REF_FRAME      = TEME
TIME_SYSTEM    = UTC
MEAN_ELEMENT_THEORY = SGP/SGP4

EPOCH          = 2026-01-10T22:48:52.491456
MEAN_MOTION    = 14.12400391
ECCENTRICITY   = .00191431
INCLINATION    = 70.7598
RA_OF_ASC_NODE = 297.4535
ARG_OF_PERICENTER = 225.4220
MEAN_ANOMALY   = 134.5338

EPHEMERIS_TYPE = 0
CLASSIFICATION_TYPE = U
NORAD_CAT_ID   = 24298
ELEMENT_SET_NO = 999
REV_AT_EPOCH   = 51349
BSTAR          = .33352741E-4
MEAN_MOTION_DOT = .12E-6
MEAN_MOTION_DDOT = 0

CCSDS_OMM_VERS = 2.0
CREATION_DATE  = 
ORIGINATOR     = 

OBJECT_NAME    = ORBVIEW 2 (SEASTAR)
OBJECT_ID      = 1997-037A
CENTER_NAME    = EARTH
REF_FRAME      = TEME
TIME_SYSTEM    = UTC
MEAN_ELEMENT_THEORY = SGP/SGP4

EPOCH          = 2026-01-10T23:34:38.557344
MEAN_MOTION    = 14.35443221
ECCENTRICITY   = .00016336
INCLINATION    = 98.8476
RA_OF_ASC_NODE = 173.7970
ARG_OF_PERICENTER = 207.1099
MEAN_ANOMALY   = 153.0000

EPHEMERIS_TYPE = 0
CLASSIFICATION_TYPE = U
NORAD_CAT_ID   = 24883
ELEMENT_SET_NO = 999
REV_AT_EPOCH   = 50019
BSTAR          = .12251576E-3
MEAN_MOTION_DOT = .305E-5
MEAN_MOTION_DDOT = 0

