SL-16 R/B               
1 22566U 93016B   26010.96578677 -.00000226  00000+0 -91399-4 0  9990
2 22566  71.0089 336.4193 0008474  40.2901 319.8848 14.15294954694000
COSMOS 2242             
1 22626U 93024A   26010.86184224  .00002540  00000+0  22208-3 0  9997
2 22626  82.5207 322.0082 0017501 134.9918 225.2726 14.96259104771743
SL-16 R/B               
1 22803U 93059B   26010.74127513  .00000109  00000+0  77546-4 0  9992
2 22803  70.9905 133.3307 0019256 295.1620  64.7506 14.17219106671324
ARIANE 40 R/B           
1 22830U 93061H   26010.94809703  .00000253  00000+0  10855-3 0  9994
2 22830  98.5032  80.9408 0011822  95.5403 264.7130 14.32824045685839
COSMOS 2278             
1 23087U 94023A   26010.95750123  .00000341  00000+0  20292-3 0  9994
2 23087  71.0551 295.8824 0006941 125.5380 234.6391 14.14361933636641
SL-16 R/B               
1 23088U 94023B   26010.88879457  .00000340  00000+0  20007-3 0  9992
2 23088  70.9983 192.2721 0002992 345.6150  14.4887 14.15003455637915
SL-16 R/B               
1 23343U 94074B   26010.96460883  .00000496  00000+0  73264-4 0  9996
2 23343  97.7176  44.1035 0007770  56.7829  11.9015 14.79329776678710
SL-16 R/B               
1 23405U 94077B   26010.68096699  .00000272  00000+0  16340-3 0  9990
2 23405  70.9831 114.5302 0004822 260.5312  99.5266 14.15552362608022
ARIANE 40+ R/B          
1 23561U 95021B   26010.79659211  .00000307  00000+0  11211-3 0  9991
2 23561  98.4610  83.0298 0005940 322.5137 148.1151 14.39722056610915
SL-16 R/B               
1 23705U 95058B   26010.96776017  .00000175  00000+0  11373-3 0  9996
2 23705  71.0230 301.4404 0013847 216.2017 143.8170 14.15489336559681
SL-16 R/B               
1 24298U 96051B   26010.95060754  .00000012  00000+0  33353-4 0  9994
2 24298  70.7598 297.4535 0019143 225.4220 134.5338 14.12400391513497
ORBVIEW 2 (SEASTAR)     
1 24883U 97037A   26010.98239071  .00000305  00000+0  12252-3 0  9991
2 24883  98.8476 173.7970 0001633 207.1099 153.0000 14.35443221500197
